{
  "type": "FeatureCollection",
  "features": [
    {
      "type": "Feature",
      "properties": {
        "norad_id": 39227,
        "name": "ARIRANG-5 (KOMPSAT-5)",
        "group": "resource",
        "lat": 51.64076823098056,
        "lon": 7.55432161644522,
        "alt_km": 548.1561614120583,
        "timestamp": "2025-12-19T14:48:35.901395+00:00",
        "meta_object_name": "ARIRANG-5 (KOMPSAT-5)",
        "meta_object_id": "2013-042A",
        "meta_epoch": "2025-12-19T07:51:36.539136",
        "meta_mean_motion": 15.04534228,
        "meta_eccentricity": 0.00034276,
        "meta_inclination": 97.6151,
        "meta_ra_of_asc_node": 177.5366,
        "meta_arg_of_pericenter": 39.1507,
        "meta_mean_anomaly": 320.9967,
        "meta_ephemeris_type": 0,
        "meta_classification_type": "U",
        "meta_norad_cat_id": 39227,
        "meta_element_set_no": 999,
        "meta_rev_at_epoch": 67681,
        "meta_bstar": 0.00014935447,
        "meta_mean_motion_dot": 2.032e-05,
        "meta_mean_motion_ddot": 0,
        "tle_line1": "1 39227U 13042A   25353.32750624  .00002032  00000+0  14935-3 0  9991",
        "tle_line2": "2 39227  97.6151 177.5366 0003427  39.1507 320.9967 15.04534228676818"
      },
      "geometry": {
        "type": "Point",
        "coordinates": [
          7.55432161644522,
          51.64076823098056
        ]
      }
    },
    {
      "type": "Feature",
      "properties": {
        "norad_id": 39418,
        "name": "SKYSAT-A",
        "group": "resource",
        "lat": -43.12154280446064,
        "lon": 50.61744897986171,
        "alt_km": 541.5796050183872,
        "timestamp": "2025-12-19T14:48:35.901406+00:00",
        "meta_object_name": "SKYSAT-A",
        "meta_object_id": "2013-066C",
        "meta_epoch": "2025-12-19T02:17:36.318336",
        "meta_mean_motion": 15.11647877,
        "meta_eccentricity": 0.00211813,
        "meta_inclination": 97.4101,
        "meta_ra_of_asc_node": 43.1111,
        "meta_arg_of_pericenter": 213.5251,
        "meta_mean_anomaly": 146.464,
        "meta_ephemeris_type": 0,
        "meta_classification_type": "U",
        "meta_norad_cat_id": 39418,
        "meta_element_set_no": 999,
        "meta_rev_at_epoch": 66126,
        "meta_bstar": 0.00019515102,
        "meta_mean_motion_dot": 3.271e-05,
        "meta_mean_motion_ddot": 0,
        "tle_line1": "1 39418U 13066C   25353.09555924  .00003271  00000+0  19515-3 0  9994",
        "tle_line2": "2 39418  97.4101  43.1111 0021181 213.5251 146.4640 15.11647877661265"
      },
      "geometry": {
        "type": "Point",
        "coordinates": [
          50.61744897986171,
          -43.12154280446064
        ]
      }
    },
    {
      "type": "Feature",
      "properties": {
        "norad_id": 39419,
        "name": "DUBAISAT-2",
        "group": "resource",
        "lat": 18.215729483713524,
        "lon": -18.653356014852967,
        "alt_km": 540.6283272042065,
        "timestamp": "2025-12-19T14:48:35.901417+00:00",
        "meta_object_name": "DUBAISAT-2",
        "meta_object_id": "2013-066D",
        "meta_epoch": "2025-12-19T06:46:06.278304",
        "meta_mean_motion": 15.08416123,
        "meta_eccentricity": 0.00099835,
        "meta_inclination": 97.4441,
        "meta_ra_of_asc_node": 343.488,
        "meta_arg_of_pericenter": 296.4726,
        "meta_mean_anomaly": 63.5479,
        "meta_ephemeris_type": 0,
        "meta_classification_type": "U",
        "meta_norad_cat_id": 39419,
        "meta_element_set_no": 999,
        "meta_rev_at_epoch": 65925,
        "meta_bstar": 0.00020615462,
        "meta_mean_motion_dot": 3.149e-05,
        "meta_mean_motion_ddot": 0,
        "tle_line1": "1 39419U 13066D   25353.28201711  .00003149  00000+0  20615-3 0  9995",
        "tle_line2": "2 39419  97.4441 343.4880 0009983 296.4726  63.5479 15.08416123659254"
      },
      "geometry": {
        "type": "Point",
        "coordinates": [
          -18.653356014852967,
          18.215729483713524
        ]
      }
    },
    {
      "type": "Feature",
      "properties": {
        "norad_id": 39574,
        "name": "GPM-CORE",
        "group": "resource",
        "lat": -9.741642135004993,
        "lon": -174.94918820204063,
        "alt_km": 437.22788684997613,
        "timestamp": "2025-12-19T14:48:35.901427+00:00",
        "meta_object_name": "GPM-CORE",
        "meta_object_id": "2014-009C",
        "meta_epoch": "2025-12-19T05:31:57.800640",
        "meta_mean_motion": 15.44559944,
        "meta_eccentricity": 0.00094615,
        "meta_inclination": 64.972,
        "meta_ra_of_asc_node": 190.9457,
        "meta_arg_of_pericenter": 247.593,
        "meta_mean_anomaly": 112.4209,
        "meta_ephemeris_type": 0,
        "meta_classification_type": "U",
        "meta_norad_cat_id": 39574,
        "meta_element_set_no": 999,
        "meta_rev_at_epoch": 67001,
        "meta_bstar": 0.00013226949,
        "meta_mean_motion_dot": 5.933e-05,
        "meta_mean_motion_ddot": 0,
        "tle_line1": "1 39574U 14009C   25353.23053010  .00005933  00000+0  13227-3 0  9991",
        "tle_line2": "2 39574  64.9720 190.9457 0009461 247.5930 112.4209 15.44559944670016"
      },
      "geometry": {
        "type": "Point",
        "coordinates": [
          -174.94918820204063,
          -9.741642135004993
        ]
      }
    },
    {
      "type": "Feature",
      "properties": {
        "norad_id": 39634,
        "name": "SENTINEL-1A",
        "group": "resource",
        "lat": -49.45186658740088,
        "lon": 169.07869487857855,
        "alt_km": 703.3682386288092,
        "timestamp": "2025-12-19T14:48:35.901437+00:00",
        "meta_object_name": "SENTINEL-1A",
        "meta_object_id": "2014-016A",
        "meta_epoch": "2025-12-19T05:31:49.258272",
        "meta_mean_motion": 14.59201828,
        "meta_eccentricity": 0.00012236,
        "meta_inclination": 98.1796,
        "meta_ra_of_asc_node": 358.3764,
        "meta_arg_of_pericenter": 82.5905,
        "meta_mean_anomaly": 277.5434,
        "meta_ephemeris_type": 0,
        "meta_classification_type": "U",
        "meta_norad_cat_id": 39634,
        "meta_element_set_no": 999,
        "meta_rev_at_epoch": 62377,
        "meta_bstar": 3.8518241e-05,
        "meta_mean_motion_dot": 1.36e-06,
        "meta_mean_motion_ddot": 0,
        "tle_line1": "1 39634U 14016A   25353.23043123  .00000136  00000+0  38518-4 0  9991",
        "tle_line2": "2 39634  98.1796 358.3764 0001223  82.5905 277.5434 14.59201828623777"
      },
      "geometry": {
        "type": "Point",
        "coordinates": [
          169.07869487857855,
          -49.45186658740088
        ]
      }
    },
    {
      "type": "Feature",
      "properties": {
        "norad_id": 39731,
        "name": "KAZEOSAT 1",
        "group": "resource",
        "lat": 38.42524108806448,
        "lon": -107.94400152757954,
        "alt_km": 748.1977856382173,
        "timestamp": "2025-12-19T14:48:35.901447+00:00",
        "meta_object_name": "KAZEOSAT 1",
        "meta_object_id": "2014-024A",
        "meta_epoch": "2025-12-19T07:29:50.707680",
        "meta_mean_motion": 14.42066163,
        "meta_eccentricity": 0.00011502,
        "meta_inclination": 98.3433,
        "meta_ra_of_asc_node": 65.0727,
        "meta_arg_of_pericenter": 98.6937,
        "meta_mean_anomaly": 261.4383,
        "meta_ephemeris_type": 0,
        "meta_classification_type": "U",
        "meta_norad_cat_id": 39731,
        "meta_element_set_no": 999,
        "meta_rev_at_epoch": 61263,
        "meta_bstar": 7.1874345e-05,
        "meta_mean_motion_dot": 1.93e-06,
        "meta_mean_motion_ddot": 0,
        "tle_line1": "1 39731U 14024A   25353.31239245  .00000193  00000+0  71874-4 0  9994",
        "tle_line2": "2 39731  98.3433  65.0727 0001150  98.6937 261.4383 14.42066163612639"
      },
      "geometry": {
        "type": "Point",
        "coordinates": [
          -107.94400152757954,
          38.42524108806448
        ]
      }
    },
    {
      "type": "Feature",
      "properties": {
        "norad_id": 39766,
        "name": "ALOS-2",
        "group": "resource",
        "lat": -49.0830684122357,
        "lon": -100.88053018386391,
        "alt_km": 638.5104358320705,
        "timestamp": "2025-12-19T14:48:35.901458+00:00",
        "meta_object_name": "ALOS-2",
        "meta_object_id": "2014-029A",
        "meta_epoch": "2025-12-19T07:16:56.862624",
        "meta_mean_motion": 14.79468187,
        "meta_eccentricity": 0.00013914,
        "meta_inclination": 97.9229,
        "meta_ra_of_asc_node": 88.0563,
        "meta_arg_of_pericenter": 100.6074,
        "meta_mean_anomaly": 259.5294,
        "meta_ephemeris_type": 0,
        "meta_classification_type": "U",
        "meta_norad_cat_id": 39766,
        "meta_element_set_no": 999,
        "meta_rev_at_epoch": 62498,
        "meta_bstar": 0.00032337768,
        "meta_mean_motion_dot": 2.364e-05,
        "meta_mean_motion_ddot": 0,
        "tle_line1": "1 39766U 14029A   25353.30343591  .00002364  00000+0  32338-3 0  9999",
        "tle_line2": "2 39766  97.9229  88.0563 0001391 100.6074 259.5294 14.79468187624983"
      },
      "geometry": {
        "type": "Point",
        "coordinates": [
          -100.88053018386391,
          -49.0830684122357
        ]
      }
    }
  ]
}